start=new Date('2023-05-26T00:00:00.000Z').valueOf();
sats=[{"PERIOD":"95.592","ELEMENT_SET_NO":"999","MEAN_ANOMALY":"304.5720","TLE_LINE2":"2 46031  53.0534  20.1263 0001281  55.5390 304.5720 15.06396015155322","RA_OF_ASC_NODE":"20.1263","COUNTRY_CODE":"US","OBJECT_NAME":"STARLINK-1544","PERIAPSIS":"546.339","MEAN_MOTION_DDOT":"0.0000000000000","MEAN_ELEMENT_THEORY":"SGP4","MEAN_MOTION_DOT":"0.00018778","APOAPSIS":"548.113","ARG_OF_PERICENTER":"55.5390","REV_AT_EPOCH":"15532","SITE":"AFETR","GP_ID":"232512097","CLASSIFICATION_TYPE":"U","INCLINATION":"53.0534","FILE":"3917122","DECAY_DATE":null,"CENTER_NAME":"EARTH","NORAD_CAT_ID":"46031","SEMIMAJOR_AXIS":"6925.361","OBJECT_ID":"2020-055E","RCS_SIZE":"LARGE","OBJECT_TYPE":"PAYLOAD","REF_FRAME":"TEME","EPHEMERIS_TYPE":"0","ECCENTRICITY":"0.00012810","MEAN_MOTION":"15.06396015","TIME_SYSTEM":"UTC","TLE_LINE1":"1 46031U 20055E   23145.90119125  .00018778  00000-0  12763-2 0  9991","BSTAR":"0.00127630000000","LAUNCH_DATE":"2020-08-07","EPOCH":"2023-05-25T21:37:42.924000"},{"NORAD_CAT_ID":"46032","DECAY_DATE":null,"CENTER_NAME":"EARTH","FILE":"3917122","SEMIMAJOR_AXIS":"6925.346","OBJECT_ID":"2020-055F","RCS_SIZE":"LARGE","OBJECT_TYPE":"PAYLOAD","EPHEMERIS_TYPE":"0","REF_FRAME":"TEME","TLE_LINE1":"1 46032U 20055F   23145.93159782 -.00004295  00000-0 -26963-3 0  9997","BSTAR":"-0.00026963000000","TIME_SYSTEM":"UTC","ECCENTRICITY":"0.00010200","MEAN_MOTION":"15.06400823","LAUNCH_DATE":"2020-08-07","EPOCH":"2023-05-25T22:21:30.051648","ELEMENT_SET_NO":"999","PERIOD":"95.592","COUNTRY_CODE":"US","OBJECT_NAME":"STARLINK-1555","RA_OF_ASC_NODE":"19.9986","TLE_LINE2":"2 46032  53.0546  19.9986 0001020 111.4837 248.6261 15.06400823155346","MEAN_ANOMALY":"248.6261","MEAN_MOTION_DOT":"-0.00004295","MEAN_ELEMENT_THEORY":"SGP4","MEAN_MOTION_DDOT":"0.0000000000000","PERIAPSIS":"546.505","APOAPSIS":"547.917","REV_AT_EPOCH":"15534","SITE":"AFETR","ARG_OF_PERICENTER":"111.4837","GP_ID":"232512849","INCLINATION":"53.0546","CLASSIFICATION_TYPE":"U"},{"TLE_LINE1":"1 46033U 20055G   23145.91318568  .00006150  00000-0  43123-3 0  9992","BSTAR":"0.00043123000000","TIME_SYSTEM":"UTC","ECCENTRICITY":"0.00010550","MEAN_MOTION":"15.06413295","EPHEMERIS_TYPE":"0","REF_FRAME":"TEME","EPOCH":"2023-05-25T21:54:59.242752","LAUNCH_DATE":"2020-08-07","SEMIMAJOR_AXIS":"6925.308","OBJECT_ID":"2020-055G","NORAD_CAT_ID":"46033","DECAY_DATE":null,"CENTER_NAME":"EARTH","FILE":"3917122","OBJECT_TYPE":"PAYLOAD","RCS_SIZE":"LARGE","REV_AT_EPOCH":"15531","SITE":"AFETR","ARG_OF_PERICENTER":"75.1118","INCLINATION":"53.0546","CLASSIFICATION_TYPE":"U","GP_ID":"232513600","COUNTRY_CODE":"US","OBJECT_NAME":"STARLINK-1556","RA_OF_ASC_NODE":"20.0855","MEAN_ANOMALY":"284.9988","TLE_LINE2":"2 46033  53.0546  20.0855 0001055  75.1118 284.9988 15.06413295155314","ELEMENT_SET_NO":"999","PERIOD":"95.591","APOAPSIS":"547.903","MEAN_MOTION_DOT":"0.00006150","MEAN_ELEMENT_THEORY":"SGP4","MEAN_MOTION_DDOT":"0.0000000000000","PERIAPSIS":"546.442"},{"DECAY_DATE":null,"CENTER_NAME":"EARTH","NORAD_CAT_ID":"46034","FILE":"3917122","SEMIMAJOR_AXIS":"6925.297","OBJECT_ID":"2020-055H","RCS_SIZE":"LARGE","OBJECT_TYPE":"PAYLOAD","EPHEMERIS_TYPE":"0","REF_FRAME":"TEME","TIME_SYSTEM":"UTC","BSTAR":"0.00061530000000","TLE_LINE1":"1 46034U 20055H   23145.91687427  .00008899  00000-0  61530-3 0  9990","ECCENTRICITY":"0.00013560","MEAN_MOTION":"15.06416840","LAUNCH_DATE":"2020-08-07","EPOCH":"2023-05-25T22:00:17.936928","ELEMENT_SET_NO":"999","PERIOD":"95.591","RA_OF_ASC_NODE":"20.0644","OBJECT_NAME":"STARLINK-1557","COUNTRY_CODE":"US","MEAN_ANOMALY":"229.0350","TLE_LINE2":"2 46034  53.0555  20.0644 0001356 131.0756 229.0350 15.06416840155317","MEAN_ELEMENT_THEORY":"SGP4","MEAN_MOTION_DOT":"0.00008899","PERIAPSIS":"546.223","MEAN_MOTION_DDOT":"0.0000000000000","APOAPSIS":"548.101","SITE":"AFETR","REV_AT_EPOCH":"15531","ARG_OF_PERICENTER":"131.0756","GP_ID":"232512348","CLASSIFICATION_TYPE":"U","INCLINATION":"53.0555"},{"REF_FRAME":"TEME","EPHEMERIS_TYPE":"0","TIME_SYSTEM":"UTC","TLE_LINE1":"1 46035U 20055J   23145.92424402  .00003810  00000-0  27447-3 0  9991","BSTAR":"0.00027447000000","ECCENTRICITY":"0.00007640","MEAN_MOTION":"15.06406939","LAUNCH_DATE":"2020-08-07","EPOCH":"2023-05-25T22:10:54.683328","DECAY_DATE":null,"CENTER_NAME":"EARTH","NORAD_CAT_ID":"46035","FILE":"3917122","OBJECT_ID":"2020-055J","SEMIMAJOR_AXIS":"6925.327","RCS_SIZE":"LARGE","OBJECT_TYPE":"PAYLOAD","REV_AT_EPOCH":"15534","SITE":"AFETR","ARG_OF_PERICENTER":"125.0930","GP_ID":"232512598","CLASSIFICATION_TYPE":"U","INCLINATION":"53.0547","ELEMENT_SET_NO":"999","PERIOD":"95.592","RA_OF_ASC_NODE":"20.0361","OBJECT_NAME":"STARLINK-1558","COUNTRY_CODE":"US","TLE_LINE2":"2 46035  53.0547  20.0361 0000764 125.0930 235.0131 15.06406939155349","MEAN_ANOMALY":"235.0131","MEAN_ELEMENT_THEORY":"SGP4","MEAN_MOTION_DOT":"0.00003810","PERIAPSIS":"546.663","MEAN_MOTION_DDOT":"0.0000000000000","APOAPSIS":"547.721"},{"PERIAPSIS":"546.405","MEAN_MOTION_DDOT":"0.0000000000000","MEAN_ELEMENT_THEORY":"SGP4","MEAN_MOTION_DOT":"0.00005045","APOAPSIS":"547.999","PERIOD":"95.592","ELEMENT_SET_NO":"999","TLE_LINE2":"2 46036  53.0552  20.0980 0001151 118.1999 241.9107 15.06403887155340","MEAN_ANOMALY":"241.9107","RA_OF_ASC_NODE":"20.0980","COUNTRY_CODE":"US","OBJECT_NAME":"STARLINK-1560","GP_ID":"232513350","CLASSIFICATION_TYPE":"U","INCLINATION":"53.0552","ARG_OF_PERICENTER":"118.1999","SITE":"AFETR","REV_AT_EPOCH":"15534","RCS_SIZE":"LARGE","OBJECT_TYPE":"PAYLOAD","FILE":"3917122","DECAY_DATE":null,"CENTER_NAME":"EARTH","NORAD_CAT_ID":"46036","SEMIMAJOR_AXIS":"6925.337","OBJECT_ID":"2020-055K","LAUNCH_DATE":"2020-08-07","EPOCH":"2023-05-25T21:49:41.178432","REF_FRAME":"TEME","EPHEMERIS_TYPE":"0","ECCENTRICITY":"0.00011510","MEAN_MOTION":"15.06403887","TIME_SYSTEM":"UTC","BSTAR":"0.00035727000000","TLE_LINE1":"1 46036U 20055K   23145.90950438  .00005045  00000-0  35727-3 0  9995"},{"RCS_SIZE":"LARGE","OBJECT_TYPE":"PAYLOAD","FILE":"3917122","NORAD_CAT_ID":"46037","DECAY_DATE":null,"CENTER_NAME":"EARTH","SEMIMAJOR_AXIS":"6925.350","OBJECT_ID":"2020-055L","LAUNCH_DATE":"2020-08-07","EPOCH":"2023-05-25T21:44:21.923520","EPHEMERIS_TYPE":"0","REF_FRAME":"TEME","MEAN_MOTION":"15.06399507","ECCENTRICITY":"0.00026850","TLE_LINE1":"1 46037U 20055L   23145.90580930  .00005268  00000-0  37229-3 0  9998","BSTAR":"0.00037229000000","TIME_SYSTEM":"UTC","MEAN_MOTION_DDOT":"0.0000000000000","PERIAPSIS":"545.356","MEAN_MOTION_DOT":"0.00005268","MEAN_ELEMENT_THEORY":"SGP4","APOAPSIS":"549.075","PERIOD":"95.592","ELEMENT_SET_NO":"999","TLE_LINE2":"2 46037  53.0548  20.1089 0002685 150.3423 209.7718 15.06399507155332","MEAN_ANOMALY":"209.7718","OBJECT_NAME":"STARLINK-1565","COUNTRY_CODE":"US","RA_OF_ASC_NODE":"20.1089","GP_ID":"232513100","INCLINATION":"53.0548","CLASSIFICATION_TYPE":"U","ARG_OF_PERICENTER":"150.3423","SITE":"AFETR","REV_AT_EPOCH":"15533"},{"FILE":"3917122","NORAD_CAT_ID":"46038","CENTER_NAME":"EARTH","DECAY_DATE":null,"SEMIMAJOR_AXIS":"6925.290","OBJECT_ID":"2020-055M","RCS_SIZE":"LARGE","OBJECT_TYPE":"PAYLOAD","REF_FRAME":"TEME","EPHEMERIS_TYPE":"0","ECCENTRICITY":"0.00011340","MEAN_MOTION":"15.06419026","TLE_LINE1":"1 46038U 20055M   23145.92055827  .00009356  00000-0  64583-3 0  9998","BSTAR":"0.00064583000000","TIME_SYSTEM":"UTC","LAUNCH_DATE":"2020-08-07","EPOCH":"2023-05-25T22:05:36.234528","PERIOD":"95.591","ELEMENT_SET_NO":"999","MEAN_ANOMALY":"218.3267","TLE_LINE2":"2 46038  53.0546  20.0511 0001134 141.7803 218.3267 15.06419026155338","COUNTRY_CODE":"US","OBJECT_NAME":"STARLINK-1567","RA_OF_ASC_NODE":"20.0511","MEAN_MOTION_DDOT":"0.0000000000000","PERIAPSIS":"546.370","MEAN_MOTION_DOT":"0.00009356","MEAN_ELEMENT_THEORY":"SGP4","APOAPSIS":"547.941","ARG_OF_PERICENTER":"141.7803","SITE":"AFETR","REV_AT_EPOCH":"15533","GP_ID":"232511848","INCLINATION":"53.0546","CLASSIFICATION_TYPE":"U"},{"COUNTRY_CODE":"US","OBJECT_NAME":"STARLINK-1569","RA_OF_ASC_NODE":"20.0189","MEAN_ANOMALY":"250.5204","TLE_LINE2":"2 46039  53.0549  20.0189 0000802 109.5872 250.5204 15.06413829155336","ELEMENT_SET_NO":"999","PERIOD":"95.591","APOAPSIS":"547.727","MEAN_MOTION_DOT":"0.00005301","MEAN_ELEMENT_THEORY":"SGP4","MEAN_MOTION_DDOT":"0.0000000000000","PERIAPSIS":"546.616","SITE":"AFETR","REV_AT_EPOCH":"15533","ARG_OF_PERICENTER":"109.5872","INCLINATION":"53.0549","CLASSIFICATION_TYPE":"U","GP_ID":"232512098","SEMIMAJOR_AXIS":"6925.306","OBJECT_ID":"2020-055N","NORAD_CAT_ID":"46039","DECAY_DATE":null,"CENTER_NAME":"EARTH","FILE":"3917122","OBJECT_TYPE":"PAYLOAD","RCS_SIZE":"LARGE","TLE_LINE1":"1 46039U 20055N   23145.92793473  .00005301  00000-0  37436-3 0  9998","BSTAR":"0.00037436000000","TIME_SYSTEM":"UTC","MEAN_MOTION":"15.06413829","ECCENTRICITY":"0.00008020","REF_FRAME":"TEME","EPHEMERIS_TYPE":"0","EPOCH":"2023-05-25T22:16:13.560672","LAUNCH_DATE":"2020-08-07"},{"MEAN_ANOMALY":"269.4329","TLE_LINE2":"2 46040  53.0545  20.1812 0001321  90.6811 269.4329 15.06401190155298","COUNTRY_CODE":"US","OBJECT_NAME":"STARLINK-1576","RA_OF_ASC_NODE":"20.1812","PERIOD":"95.592","ELEMENT_SET_NO":"999","APOAPSIS":"548.125","MEAN_MOTION_DDOT":"0.0000000000000","PERIAPSIS":"546.295","MEAN_MOTION_DOT":"-0.00003327","MEAN_ELEMENT_THEORY":"SGP4","ARG_OF_PERICENTER":"90.6811","REV_AT_EPOCH":"15529","SITE":"AFETR","INCLINATION":"53.0545","CLASSIFICATION_TYPE":"U","GP_ID":"232512850","SEMIMAJOR_AXIS":"6925.345","OBJECT_ID":"2020-055P","FILE":"3917122","NORAD_CAT_ID":"46040","CENTER_NAME":"EARTH","DECAY_DATE":null,"OBJECT_TYPE":"PAYLOAD","RCS_SIZE":"LARGE","MEAN_MOTION":"15.06401190","ECCENTRICITY":"0.00013210","BSTAR":"-0.00020454000000","TLE_LINE1":"1 46040U 20055P   23145.89107227 -.00003327  00000-0 -20454-3 0  9992","TIME_SYSTEM":"UTC","EPHEMERIS_TYPE":"0","REF_FRAME":"TEME","EPOCH":"2023-05-25T21:23:08.644128","LAUNCH_DATE":"2020-08-07"}];
